ATLAS CENTAUR 2         
1 00694U 63047A   26079.15065059  .00001736  00000+0  19919-3 0  9992
2 00694  30.3531 137.1781 0547451 172.4811 188.4403 14.12104756133101
THOR AGENA D R/B        
1 00733U 64002A   26078.98815981  .00000161  00000+0  74757-4 0  9998
2 00733  99.1220  92.8869 0032188 227.3340 132.5129 14.34025777239774
SL-3 R/B                
1 00877U 64053B   26079.02542949  .00000116  00000+0  46774-4 0  9998
2 00877  65.0766 300.9352 0080117 288.9673  70.2757 14.61375271268300
SL-8 R/B                
1 02802U 67045B   26079.16290278  .00000258  00000+0  79078-4 0  9992
2 02802  74.0128 328.5318 0064619 332.4226  27.3508 14.45631057 90532
SL-8 R/B                
1 03230U 68040B   26079.02479729  .00002316  00000+0  17278-3 0  9999
2 03230  74.0298 292.5751 0023474 112.4003 247.9675 15.03321754 91564
OAO 2                   
1 03597U 68110A   26078.71725527  .00000199  00000+0  58752-4 0  9998
2 03597  34.9923 209.2351 0006227 278.0678  81.9307 14.47313277 20552
ISIS 1                  
1 03669U 69009A   26079.16318149  .00000127  00000+0  75002-4 0  9992
2 03669  88.4523 154.1662 1707875  68.0347 309.3039 11.30417040349716
SERT 2                  
1 04327U 70009A   26078.86116947 -.00000001  00000+0  55188-4 0  9999
2 04327  99.2773  21.3988 0005418 131.4291 293.6582 13.58730754781278
SL-3 R/B                
1 05118U 71028B   26079.16507672  .00030168  00000+0  34348-3 0  9993
2 05118  81.2376  39.0818 0013587 240.0509 119.9397 15.61992757990309
ASTEX 1                 
1 05560U 71089A   26079.16827997  .00000384  00000+0  97536-4 0  9992
2 05560  92.7105 155.1472 0017360  54.8132 305.4696 14.50780226863822
SL-8 R/B                
1 05730U 71119B   26078.46708142  .00006872  00000+0  35969-3 0  9996
2 05730  73.8875 157.4417 0547469 122.0154 243.5410 14.38070645656895
OAO 3 (COPERNICUS)      
1 06153U 72065A   26078.71211199  .00000291  00000+0  64075-4 0  9996
2 06153  35.0047 240.2128 0007252 245.8074 131.2427 14.60005820847668
