CCSDS_OMM_VERS = 2.0
CREATION_DATE  = 
ORIGINATOR     = 

OBJECT_NAME    = ATLAS CENTAUR 2
OBJECT_ID      = 1963-047A
CENTER_NAME    = EARTH
REF_FRAME      = TEME
TIME_SYSTEM    = UTC
MEAN_ELEMENT_THEORY = SGP/SGP4

EPOCH          = 2026-03-20T03:36:56.210976
MEAN_MOTION    = 14.12104756
ECCENTRICITY   = .0547451
INCLINATION    = 30.3531
RA_OF_ASC_NODE = 137.1781
ARG_OF_PERICENTER = 172.4811
MEAN_ANOMALY   = 188.4403

EPHEMERIS_TYPE = 0
CLASSIFICATION_TYPE = U
NORAD_CAT_ID   = 694
ELEMENT_SET_NO = 999
REV_AT_EPOCH   = 13310
BSTAR          = .19919E-3
MEAN_MOTION_DOT = .1736E-4
MEAN_MOTION_DDOT = 0

CCSDS_OMM_VERS = 2.0
CREATION_DATE  = 
ORIGINATOR     = 

OBJECT_NAME    = THOR AGENA D R/B
OBJECT_ID      = 1964-002A
CENTER_NAME    = EARTH
REF_FRAME      = TEME
TIME_SYSTEM    = UTC
MEAN_ELEMENT_THEORY = SGP/SGP4

EPOCH          = 2026-03-19T23:42:57.007584
MEAN_MOTION    = 14.34025777
ECCENTRICITY   = .0032188
INCLINATION    = 99.1220
RA_OF_ASC_NODE = 92.8869
ARG_OF_PERICENTER = 227.3340
MEAN_ANOMALY   = 132.5129

EPHEMERIS_TYPE = 0
CLASSIFICATION_TYPE = U
NORAD_CAT_ID   = 733
ELEMENT_SET_NO = 999
REV_AT_EPOCH   = 23977
BSTAR          = .74757E-4
MEAN_MOTION_DOT = .161E-5
MEAN_MOTION_DDOT = 0

CCSDS_OMM_VERS = 2.0
CREATION_DATE  = 
ORIGINATOR     = 

OBJECT_NAME    = SL-3 R/B
OBJECT_ID      = 1964-053B
CENTER_NAME    = EARTH
REF_FRAME      = TEME
TIME_SYSTEM    = UTC
MEAN_ELEMENT_THEORY = SGP/SGP4

EPOCH          = 2026-03-20T00:36:37.107936
MEAN_MOTION    = 14.61375271
ECCENTRICITY   = .0080117
INCLINATION    = 65.0766
RA_OF_ASC_NODE = 300.9352
ARG_OF_PERICENTER = 288.9673
MEAN_ANOMALY   = 70.2757

EPHEMERIS_TYPE = 0
CLASSIFICATION_TYPE = U
NORAD_CAT_ID   = 877
ELEMENT_SET_NO = 999
REV_AT_EPOCH   = 26830
BSTAR          = .46774E-4
MEAN_MOTION_DOT = .116E-5
MEAN_MOTION_DDOT = 0

CCSDS_OMM_VERS = 2.0
CREATION_DATE  = 
ORIGINATOR     = 

OBJECT_NAME    = SL-8 R/B
OBJECT_ID      = 1967-045B
CENTER_NAME    = EARTH
REF_FRAME      = TEME
TIME_SYSTEM    = UTC
MEAN_ELEMENT_THEORY = SGP/SGP4

EPOCH          = 2026-03-20T03:54:34.800192
MEAN_MOTION    = 14.45631057
ECCENTRICITY   = .0064619
INCLINATION    = 74.0128
RA_OF_ASC_NODE = 328.5318
ARG_OF_PERICENTER = 332.4226
MEAN_ANOMALY   = 27.3508

EPHEMERIS_TYPE = 0
CLASSIFICATION_TYPE = U
NORAD_CAT_ID   = 2802
ELEMENT_SET_NO = 999
REV_AT_EPOCH   = 9053
BSTAR          = .79078E-4
MEAN_MOTION_DOT = .258E-5
MEAN_MOTION_DDOT = 0

CCSDS_OMM_VERS = 2.0
CREATION_DATE  = 
ORIGINATOR     = 

OBJECT_NAME    = SL-8 R/B
OBJECT_ID      = 1968-040B
CENTER_NAME    = EARTH
REF_FRAME      = TEME
TIME_SYSTEM    = UTC
MEAN_ELEMENT_THEORY = SGP/SGP4

EPOCH          = 2026-03-20T00:35:42.485856
MEAN_MOTION    = 15.03321754
ECCENTRICITY   = .0023474
INCLINATION    = 74.0298
RA_OF_ASC_NODE = 292.5751
ARG_OF_PERICENTER = 112.4003
MEAN_ANOMALY   = 247.9675

EPHEMERIS_TYPE = 0
CLASSIFICATION_TYPE = U
NORAD_CAT_ID   = 3230
ELEMENT_SET_NO = 999
REV_AT_EPOCH   = 9156
BSTAR          = .17278E-3
MEAN_MOTION_DOT = .2316E-4
MEAN_MOTION_DDOT = 0

CCSDS_OMM_VERS = 2.0
CREATION_DATE  = 
ORIGINATOR     = 

OBJECT_NAME    = OAO 2
OBJECT_ID      = 1968-110A
CENTER_NAME    = EARTH
REF_FRAME      = TEME
TIME_SYSTEM    = UTC
MEAN_ELEMENT_THEORY = SGP/SGP4

EPOCH          = 2026-03-19T17:12:50.855328
MEAN_MOTION    = 14.47313277
ECCENTRICITY   = .00062278
INCLINATION    = 34.9923
RA_OF_ASC_NODE = 209.2351
ARG_OF_PERICENTER = 278.0678
MEAN_ANOMALY   = 81.9307

EPHEMERIS_TYPE = 0
CLASSIFICATION_TYPE = U
NORAD_CAT_ID   = 3597
ELEMENT_SET_NO = 999
REV_AT_EPOCH   = 2055
BSTAR          = .58751725E-4
MEAN_MOTION_DOT = .199E-5
MEAN_MOTION_DDOT = 0

CCSDS_OMM_VERS = 2.0
CREATION_DATE  = 
ORIGINATOR     = 

OBJECT_NAME    = ISIS 1
OBJECT_ID      = 1969-009A
CENTER_NAME    = EARTH
REF_FRAME      = TEME
TIME_SYSTEM    = UTC
MEAN_ELEMENT_THEORY = SGP/SGP4

EPOCH          = 2026-03-20T03:54:58.880736
MEAN_MOTION    = 11.30417040
ECCENTRICITY   = .1707875
INCLINATION    = 88.4523
RA_OF_ASC_NODE = 154.1662
ARG_OF_PERICENTER = 68.0347
MEAN_ANOMALY   = 309.3039

EPHEMERIS_TYPE = 0
CLASSIFICATION_TYPE = U
NORAD_CAT_ID   = 3669
ELEMENT_SET_NO = 999
REV_AT_EPOCH   = 34971
BSTAR          = .75002E-4
MEAN_MOTION_DOT = .127E-5
MEAN_MOTION_DDOT = 0

CCSDS_OMM_VERS = 2.0
CREATION_DATE  = 
ORIGINATOR     = 

OBJECT_NAME    = SERT 2
OBJECT_ID      = 1970-009A
CENTER_NAME    = EARTH
REF_FRAME      = TEME
TIME_SYSTEM    = UTC
MEAN_ELEMENT_THEORY = SGP/SGP4

EPOCH          = 2026-03-19T20:40:05.042208
MEAN_MOTION    = 13.58730754
ECCENTRICITY   = .00054186
INCLINATION    = 99.2773
RA_OF_ASC_NODE = 21.3988
ARG_OF_PERICENTER = 131.4291
MEAN_ANOMALY   = 293.6582

EPHEMERIS_TYPE = 0
CLASSIFICATION_TYPE = U
NORAD_CAT_ID   = 4327
ELEMENT_SET_NO = 999
REV_AT_EPOCH   = 78127
BSTAR          = .55187982E-4
MEAN_MOTION_DOT = -.1E-7
MEAN_MOTION_DDOT = 0

CCSDS_OMM_VERS = 2.0
CREATION_DATE  = 
ORIGINATOR     = 

OBJECT_NAME    = SL-3 R/B
OBJECT_ID      = 1971-028B
CENTER_NAME    = EARTH
REF_FRAME      = TEME
TIME_SYSTEM    = UTC
MEAN_ELEMENT_THEORY = SGP/SGP4

EPOCH          = 2026-03-20T03:57:42.628608
MEAN_MOTION    = 15.61992757
ECCENTRICITY   = .0013587
INCLINATION    = 81.2376
RA_OF_ASC_NODE = 39.0818
ARG_OF_PERICENTER = 240.0509
MEAN_ANOMALY   = 119.9397

EPHEMERIS_TYPE = 0
CLASSIFICATION_TYPE = U
NORAD_CAT_ID   = 5118
ELEMENT_SET_NO = 999
REV_AT_EPOCH   = 99030
BSTAR          = .34348E-3
MEAN_MOTION_DOT = .30168E-3
MEAN_MOTION_DDOT = 0

CCSDS_OMM_VERS = 2.0
CREATION_DATE  = 
ORIGINATOR     = 

OBJECT_NAME    = ASTEX 1
OBJECT_ID      = 1971-089A
CENTER_NAME    = EARTH
REF_FRAME      = TEME
TIME_SYSTEM    = UTC
MEAN_ELEMENT_THEORY = SGP/SGP4

EPOCH          = 2026-03-20T04:02:19.389408
MEAN_MOTION    = 14.50780226
ECCENTRICITY   = .001736
INCLINATION    = 92.7105
RA_OF_ASC_NODE = 155.1472
ARG_OF_PERICENTER = 54.8132
MEAN_ANOMALY   = 305.4696

EPHEMERIS_TYPE = 0
CLASSIFICATION_TYPE = U
NORAD_CAT_ID   = 5560
ELEMENT_SET_NO = 999
REV_AT_EPOCH   = 86382
BSTAR          = .97536E-4
MEAN_MOTION_DOT = .384E-5
MEAN_MOTION_DDOT = 0

CCSDS_OMM_VERS = 2.0
CREATION_DATE  = 
ORIGINATOR     = 

OBJECT_NAME    = SL-8 R/B
OBJECT_ID      = 1971-119B
CENTER_NAME    = EARTH
REF_FRAME      = TEME
TIME_SYSTEM    = UTC
MEAN_ELEMENT_THEORY = SGP/SGP4

EPOCH          = 2026-03-19T11:12:35.834688
MEAN_MOTION    = 14.38070645
ECCENTRICITY   = .05474691
INCLINATION    = 73.8875
RA_OF_ASC_NODE = 157.4417
ARG_OF_PERICENTER = 122.0154
MEAN_ANOMALY   = 243.5410

EPHEMERIS_TYPE = 0
CLASSIFICATION_TYPE = U
NORAD_CAT_ID   = 5730
ELEMENT_SET_NO = 999
REV_AT_EPOCH   = 65689
BSTAR          = .35969486E-3
MEAN_MOTION_DOT = .6872E-4
MEAN_MOTION_DDOT = 0

CCSDS_OMM_VERS = 2.0
CREATION_DATE  = 
ORIGINATOR     = 

OBJECT_NAME    = OAO 3 (COPERNICUS)
OBJECT_ID      = 1972-065A
CENTER_NAME    = EARTH
REF_FRAME      = TEME
TIME_SYSTEM    = UTC
MEAN_ELEMENT_THEORY = SGP/SGP4

EPOCH          = 2026-03-19T17:05:26.475936
MEAN_MOTION    = 14.60005820
ECCENTRICITY   = .00072528
INCLINATION    = 35.0047
RA_OF_ASC_NODE = 240.2128
ARG_OF_PERICENTER = 245.8074
MEAN_ANOMALY   = 131.2427

EPHEMERIS_TYPE = 0
CLASSIFICATION_TYPE = U
NORAD_CAT_ID   = 6153
ELEMENT_SET_NO = 999
REV_AT_EPOCH   = 84766
BSTAR          = .64075088E-4
MEAN_MOTION_DOT = .291E-5
MEAN_MOTION_DDOT = 0

